[{"OBJECT_NAME":"ONEWEB-0342","OBJECT_ID":"2021-083Y","EPOCH":"2026-03-09T15:43:04.954080","MEAN_MOTION":13.20770626,"ECCENTRICITY":0.00016801,"INCLINATION":87.9174,"RA_OF_ASC_NODE":294.3102,"ARG_OF_PERICENTER":90.1608,"MEAN_ANOMALY":269.9717,"EPHEMERIS_TYPE":0,"CLASSIFICATION_TYPE":"U","NORAD_CAT_ID":49208,"ELEMENT_SET_NO":999,"REV_AT_EPOCH":22364,"BSTAR":-0.00039600067,"MEAN_MOTION_DOT":-1.48e-6,"MEAN_MOTION_DDOT":0},{"OBJECT_NAME":"SL-8 R\/B","OBJECT_ID":"1971-099B","EPOCH":"2026-03-09T11:07:11.343072","MEAN_MOTION":13.17683303,"ECCENTRICITY":0.00230068,"INCLINATION":74.0298,"RA_OF_ASC_NODE":73.2794,"ARG_OF_PERICENTER":323.1377,"MEAN_ANOMALY":190.6292,"EPHEMERIS_TYPE":0,"CLASSIFICATION_TYPE":"U","NORAD_CAT_ID":5615,"ELEMENT_SET_NO":999,"REV_AT_EPOCH":61155,"BSTAR":-0.00011403671,"MEAN_MOTION_DOT":-6.4e-7,"MEAN_MOTION_DDOT":0}]
